$$SOE
2460721.500000000, A.D. 2025-Feb-15 00:00:00.0000, -2.402396855063600E+08, 2.294197267800582E+08, 6.558160420565858E+06,
2460728.500000000, A.D. 2025-Feb-22 00:00:00.0000, -2.497084827682276E+08, 2.218074062879491E+08, 6.093960621878847E+06,
2460735.500000000, A.D. 2025-Mar-01 00:00:00.0000, -2.588520862989201E+08, 2.139062292646346E+08, 5.621822054754406E+06,
2460742.500000000, A.D. 2025-Mar-08 00:00:00.0000, -2.676639591873851E+08, 2.057309218285921E+08, 5.142476123660699E+06,
2460749.500000000, A.D. 2025-Mar-15 00:00:00.0000, -2.761382235668588E+08, 1.972961239370562E+08, 4.656641068839312E+06,
2460756.500000000, A.D. 2025-Mar-22 00:00:00.0000, -2.842696343495883E+08, 1.886163661149657E+08, 4.165021584334448E+06,
2460763.500000000, A.D. 2025-Mar-29 00:00:00.0000, -2.920535517781437E+08, 1.797060466998895E+08, 3.668308246439807E+06,
2460770.500000000, A.D. 2025-Apr-05 00:00:00.0000, -2.994859126351799E+08, 1.705794125630840E+08, 3.167176968719058E+06,
2460777.500000000, A.D. 2025-Apr-12 00:00:00.0000, -3.065632021858675E+08, 1.612505432351659E+08, 2.662288657672055E+06,
2460784.500000000, A.D. 2025-Apr-19 00:00:00.0000, -3.132824271603778E+08, 1.517333373839569E+08, 2.154289003736638E+06,
2460791.500000000, A.D. 2025-Apr-26 00:00:00.0000, -3.196410895996060E+08, 1.420415012688435E+08, 1.643808356911078E+06,
2460798.500000000, A.D. 2025-May-03 00:00:00.0000, -3.256371615281770E+08, 1.321885390210130E+08, 1.131461669661641E+06,
2460805.500000000, A.D. 2025-May-10 00:00:00.0000, -3.312690604890326E+08, 1.221877445954861E+08, 6.178484972393289E+05,
2460812.500000000, A.D. 2025-May-17 00:00:00.0000, -3.365356259515815E+08, 1.120521951994710E+08, 1.035530412502885E+05,
2460819.500000000, A.D. 2025-May-24 00:00:00.0000, -3.414360964550181E+08, 1.017947459966330E+08, -4.108557907911688E+05,
2460826.500000000, A.D. 2025-May-31 00:00:00.0000, -3.459700870925025E+08, 9.142802626066731E+07, -9.248243291163035E+05,
2460833.500000000, A.D. 2025-Jun-07 00:00:00.0000, -3.501375677502834E+08, 8.096443805312449E+07, -1.437813959080696E+06,
2460840.500000000, A.D. 2025-Jun-14 00:00:00.0000, -3.539388444731987E+08, 7.041615663669427E+07, -1.949300655386604E+06,
2460847.500000000, A.D. 2025-Jun-21 00:00:00.0000, -3.573745427420157E+08, 5.979512924173290E+07, -2.458774617325414E+06,
2460854.500000000, A.D. 2025-Jun-28 00:00:00.0000, -3.604455895241417E+08, 4.911307384998275E+07, -2.965740151832456E+06,
2460861.500000000, A.D. 2025-Jul-05 00:00:00.0000, -3.631531955944249E+08, 3.838148005375756E+07, -3.469715492309893E+06,
2460868.500000000, A.D. 2025-Jul-12 00:00:00.0000, -3.654988392998202E+08, 2.761161109238963E+07, -3.970232513546453E+06,
2460875.500000000, A.D. 2025-Jul-19 00:00:00.0000, -3.674842515609202E+08, 1.681450640916452E+07, -4.466836410741959E+06,
2460882.500000000, A.D. 2025-Jul-26 00:00:00.0000, -3.691114018772854E+08, 6.000984598640697E+06, -4.959085369385812E+06,
2460889.500000000, A.D. 2025-Aug-02 00:00:00.0000, -3.703824852443025E+08, -4.818353302212182E+06, -5.446550232604372E+06,
2460896.500000000, A.D. 2025-Aug-09 00:00:00.0000, -3.712999099298909E+08, -1.563312025651462E+07, -5.928814171441346E+06,
2460903.500000000, A.D. 2025-Aug-16 00:00:00.0000, -3.718662860051627E+08, -2.643313952405143E+07, -6.405472372172704E+06,
2460910.500000000, A.D. 2025-Aug-23 00:00:00.0000, -3.720844143068538E+08, -3.720844084724582E+07, -6.876131767751601E+06,
2460917.500000000, A.D. 2025-Aug-30 00:00:00.0000, -3.719572754722467E+08, -4.794925585940816E+07, -7.340410786525205E+06,
2460924.500000000, A.D. 2025-Sep-06 00:00:00.0000, -3.714880204338662E+08, -5.864601175808559E+07, -7.797938907546349E+06,
2460931.500000000, A.D. 2025-Sep-13 00:00:00.0000, -3.706799640160931E+08, -6.928932576664789E+07, -8.248356073403124E+06,
2460938.500000000, A.D. 2025-Sep-20 00:00:00.0000, -3.695365783352366E+08, -7.987000206381884E+07, -8.691312396386527E+06,
2460945.500000000, A.D. 2025-Sep-27 00:00:00.0000, -3.680614849166102E+08, -9.037902809849104E+07, -9.126468001305886E+06,
2460952.500000000, A.D. 2025-Oct-04 00:00:00.0000, -3.662584475137745E+08, -1.008075697778425E+08, -9.553492776103333E+06,
2460959.500000000, A.D. 2025-Oct-11 00:00:00.0000, -3.641313659752129E+08, -1.111469664995736E+08, -9.972066073803253E+06,
2460966.500000000, A.D. 2025-Oct-18 00:00:00.0000, -3.616842708513592E+08, -1.213887263277697E+08, -1.038187641532104E+07,
2460973.500000000, A.D. 2025-Oct-25 00:00:00.0000, -3.589213185805853E+08, -1.315245213221475E+08, -1.078262120591668E+07,
2460980.500000000, A.D. 2025-Nov-01 00:00:00.0000, -3.558467871928158E+08, -1.415461830227595E+08, -1.117400646831660E+07,
2460987.500000000, A.D. 2025-Nov-08 00:00:00.0000, -3.524650724745269E+08, -1.514456981364241E+08, -1.155574659877030E+07,
2460994.500000000, A.D. 2025-Nov-15 00:00:00.0000, -3.487806844252627E+08, -1.612152044953941E+08, -1.192756416465826E+07,
2461001.500000000, A.D. 2025-Nov-22 00:00:00.0000, -3.447982435793924E+08, -1.708469870780302E+08, -1.228918976248425E+07,
2461008.500000000, A.D. 2025-Nov-29 00:00:00.0000, -3.405224773209674E+08, -1.803334729665529E+08, -1.264036182914248E+07,
2461015.500000000, A.D. 2025-Dec-06 00:00:00.0000, -3.359582184447095E+08, -1.896672253909740E+08, -1.298082620878822E+07,
2461022.500000000, A.D. 2025-Dec-13 00:00:00.0000, -3.311104055116363E+08, -1.988409402461154E+08, -1.331033579152295E+07,
2461029.500000000, A.D. 2025-Dec-20 00:00:00.0000, -3.259840814960554E+08, -2.078474440734988E+08, -1.362865046200450E+07,
2461036.500000000, A.D. 2025-Dec-27 00:00:00.0000, -3.205843917883875E+08, -2.166796909254515E+08, -1.393553704838197E+07,
2461043.500000000, A.D. 2026-Jan-03 00:00:00.0000, -3.149165830000392E+08, -2.253307587319593E+08, -1.423076918804958E+07,
2461050.500000000, A.D. 2026-Jan-10 00:00:00.0000, -3.089860024456698E+08, -2.337938458547796E+08, -1.451412717573623E+07,
2461057.500000000, A.D. 2026-Jan-17 00:00:00.0000, -3.027980980565860E+08, -2.420622679275664E+08, -1.478539782287785E+07,
2461064.500000000, A.D. 2026-Jan-24 00:00:00.0000, -2.963584186354154E+08, -2.501294549665291E+08, -1.504437433365189E+07,
2461071.500000000, A.D. 2026-Jan-31 00:00:00.0000, -2.896726144173183E+08, -2.579889487655599E+08, -1.529085620038201E+07,
2461078.500000000, A.D. 2026-Feb-07 00:00:00.0000, -2.827464378651444E+08, -2.656344006396083E+08, -1.552464912857044E+07,
2461085.500000000, A.D. 2026-Feb-14 00:00:00.0000, -2.755857444349634E+08, -2.730595695383724E+08, -1.574556501601689E+07,
2461092.500000000, A.D. 2026-Feb-21 00:00:00.0000, -2.681964929145803E+08, -2.802583199602325E+08, -1.595342197443809E+07,
2461099.500000000, A.D. 2026-Feb-28 00:00:00.0000, -2.605847464100885E+08, -2.872246185197842E+08, -1.614804419985019E+07,
2461106.500000000, A.D. 2026-Mar-07 00:00:00.0000, -2.527566760288573E+08, -2.939525311267061E+08, -1.632926166243735E+07,
2461113.500000000, A.D. 2026-Mar-14 00:00:00.0000, -2.447185644747216E+08, -3.004362231192214E+08, -1.649691006159073E+07,
2461120.500000000, A.D. 2026-Mar-21 00:00:00.0000, -2.364768077663150E+08, -3.066699594654129E+08, -1.665083097318782E+07,
2461127.500000000, A.D. 2026-Mar-28 00:00:00.0000, -2.280379170814553E+08, -3.126481040133038E+08, -1.679087192080219E+07,
2461134.500000000, A.D. 2026-Apr-04 00:00:00.0000, -2.194085213234611E+08, -3.183651187643286E+08, -1.691688639434308E+07,
2461141.500000000, A.D. 2026-Apr-11 00:00:00.0000, -2.105953701266519E+08, -3.238155635402609E+08, -1.702873387077573E+07,
2461148.500000000, A.D. 2026-Apr-18 00:00:00.0000, -2.016053371328954E+08, -3.289940960627155E+08, -1.712627985246742E+07,
2461155.500000000, A.D. 2026-Apr-25 00:00:00.0000, -1.924454234856211E+08, -3.338954724448552E+08, -1.720939592667902E+07,
2461162.500000000, A.D. 2026-May-02 00:00:00.0000, -1.831227615037004E+08, -3.385145481396840E+08, -1.727795985187662E+07,
2461169.500000000, A.D. 2026-May-09 00:00:00.0000, -1.736446184034725E+08, -3.428462794257036E+08, -1.733185568805625E+07,
2461176.500000000, A.D. 2026-May-16 00:00:00.0000, -1.640183996831638E+08, -3.468857253061355E+08, -1.737097399477860E+07,
2461183.500000000, A.D. 2026-May-23 00:00:00.0000, -1.542516521092030E+08, -3.506280488137087E+08, -1.739521201842292E+07,
2461190.500000000, A.D. 2026-May-30 00:00:00.0000, -1.443520683723683E+08, -3.540685174151775E+08, -1.740447365217757E+07,
2461197.500000000, A.D. 2026-Jun-06 00:00:00.0000, -1.343274937177665E+08, -3.572025058040223E+08, -1.739866940765442E+07,
2461204.500000000, A.D. 2026-Jun-13 00:00:00.0000, -1.241859308682674E+08, -3.600255009016248E+08, -1.737771671888933E+07,
2461211.500000000, A.D. 2026-Jun-20 00:00:00.0000, -1.139355437280992E+08, -3.625331061629791E+08, -1.734154029453138E+07,
2461218.500000000, A.D. 2026-Jun-27 00:00:00.0000, -1.035846615498138E+08, -3.647210455500744E+08, -1.729007239122026E+07,
2461225.500000000, A.D. 2026-Jul-04 00:00:00.0000, -9.314178354878530E+07, -3.665851679723877E+08, -1.722325307266732E+07,
2461232.500000000, A.D. 2026-Jul-11 00:00:00.0000, -8.261558369446857E+07, -3.681214523518465E+08, -1.714103048985635E+07,
2461239.500000000, A.D. 2026-Jul-18 00:00:00.0000, -7.201491556726167E+07, -3.693260133128422E+08, -1.704336119021180E+07,
2461246.500000000, A.D. 2026-Jul-25 00:00:00.0000, -6.134881723667772E+07, -3.701951075221356E+08, -1.693021045910883E+07,
2461253.500000000, A.D. 2026-Aug-01 00:00:00.0000, -5.062651609198727E+07, -3.707251407542289E+08, -1.680155270300303E+07,
2461260.500000000, A.D. 2026-Aug-08 00:00:00.0000, -3.985743338741675E+07, -3.709126757430151E+08, -1.665737189718769E+07,
2461267.500000000, A.D. 2026-Aug-15 00:00:00.0000, -2.905118805852816E+07, -3.707544403916867E+08, -1.649766209953988E+07,
2461274.500000000, A.D. 2026-Aug-22 00:00:00.0000, -1.821760053545156E+07, -3.702473351424126E+08, -1.632242786102900E+07,
2461281.500000000, A.D. 2026-Aug-29 00:00:00.0000, -7.366698800483035E+06, -3.693884409048905E+08, -1.613168443624872E+07,
$$EOE